HAWK-11A                
1 62382U 24247F   26068.51231358  .00009457  00000+0  34106-3 0  9991
2 62382  44.9941 114.3328 0005466 327.3713  32.6832 15.28849427 67741
STARLINK-34183          
1 64254U 25119X   26068.35085192  .00025166  00000+0  92119-3 0  9998
2 64254  43.0014 309.2964 0000942 283.8545  76.2202 15.27569860 44116
